start=new Date('2022-06-07T00:00:00.000Z').valueOf();
sats=[{"DECAY_DATE":null,"ARG_OF_PERICENTER":"37.3306","ELEMENT_SET_NO":"999","REV_AT_EPOCH":"7228","ECCENTRICITY":"0.00023520","RA_OF_ASC_NODE":"158.5274","OBJECT_TYPE":"PAYLOAD","MEAN_ELEMENT_THEORY":"SGP4","SITE":"AFETR","EPOCH":"2022-06-06T16:51:26.825184","OBJECT_ID":"2021-017R","NORAD_CAT_ID":"47737","MEAN_MOTION_DOT":"0.00001257","PERIAPSIS":"473.034","CENTER_NAME":"EARTH","SEMIMAJOR_AXIS":"6852.781","LAUNCH_DATE":"2021-03-04","TIME_SYSTEM":"UTC","FILE":"3484350","RCS_SIZE":"LARGE","MEAN_MOTION":"15.30391308","TLE_LINE1":"1 47737U 21017R   22157.70239381  .00001257  00000-0  54275-4 0  9991","INCLINATION":"53.0567","APOAPSIS":"476.258","PERIOD":"94.094","MEAN_MOTION_DDOT":"0.0000000000000","TLE_LINE2":"2 47737  53.0567 158.5274 0002352  37.3306 322.7857 15.30391308 72288","CLASSIFICATION_TYPE":"U","BSTAR":"0.00005427500000","OBJECT_NAME":"STARLINK-2148","EPHEMERIS_TYPE":"0","MEAN_ANOMALY":"322.7857","GP_ID":"205526234","COUNTRY_CODE":"US","REF_FRAME":"TEME"},{"SITE":"AFETR","MEAN_ELEMENT_THEORY":"SGP4","LAUNCH_DATE":"2021-03-04","SEMIMAJOR_AXIS":"6932.843","CENTER_NAME":"EARTH","NORAD_CAT_ID":"47738","PERIAPSIS":"553.603","MEAN_MOTION_DOT":"-0.00000007","EPOCH":"2022-06-06T15:02:56.870304","OBJECT_ID":"2021-017S","ELEMENT_SET_NO":"999","REV_AT_EPOCH":"7111","ARG_OF_PERICENTER":"61.9100","DECAY_DATE":null,"OBJECT_TYPE":"PAYLOAD","ECCENTRICITY":"0.00015950","RA_OF_ASC_NODE":"241.2960","OBJECT_NAME":"STARLINK-2149","BSTAR":"0.00001921200000","CLASSIFICATION_TYPE":"U","REF_FRAME":"TEME","COUNTRY_CODE":"US","GP_ID":"205525515","EPHEMERIS_TYPE":"0","MEAN_ANOMALY":"298.2049","TLE_LINE1":"1 47738U 21017S   22157.62704711 -.00000007  00000-0  19212-4 0  9992","INCLINATION":"53.0538","MEAN_MOTION":"15.03957906","APOAPSIS":"555.814","TIME_SYSTEM":"UTC","FILE":"3484350","RCS_SIZE":"LARGE","TLE_LINE2":"2 47738  53.0538 241.2960 0001595  61.9100 298.2049 15.03957906 71115","MEAN_MOTION_DDOT":"0.0000000000000","PERIOD":"95.747"},{"MEAN_MOTION":"15.06394597","TLE_LINE1":"1 47739U 21017T   22157.58455981 -.00000689  00000-0 -27363-4 0  9993","INCLINATION":"53.0562","APOAPSIS":"548.279","TIME_SYSTEM":"UTC","FILE":"3484221","RCS_SIZE":"LARGE","TLE_LINE2":"2 47739  53.0562 266.2487 0001515  68.4618 291.6532 15.06394597 70085","MEAN_MOTION_DDOT":"0.0000000000000","PERIOD":"95.592","OBJECT_NAME":"STARLINK-2150","BSTAR":"-0.00002736300000","CLASSIFICATION_TYPE":"U","REF_FRAME":"TEME","COUNTRY_CODE":"US","GP_ID":"205501092","EPHEMERIS_TYPE":"0","MEAN_ANOMALY":"291.6532","ELEMENT_SET_NO":"999","REV_AT_EPOCH":"7008","ARG_OF_PERICENTER":"68.4618","DECAY_DATE":null,"OBJECT_TYPE":"PAYLOAD","ECCENTRICITY":"0.00015150","RA_OF_ASC_NODE":"266.2487","SITE":"AFETR","MEAN_ELEMENT_THEORY":"SGP4","LAUNCH_DATE":"2021-03-04","SEMIMAJOR_AXIS":"6925.365","CENTER_NAME":"EARTH","NORAD_CAT_ID":"47739","PERIAPSIS":"546.181","MEAN_MOTION_DOT":"-0.00000689","EPOCH":"2022-06-06T14:01:45.967584","OBJECT_ID":"2021-017T"},{"MEAN_ELEMENT_THEORY":"SGP4","SITE":"AFETR","NORAD_CAT_ID":"47740","MEAN_MOTION_DOT":"0.00000126","PERIAPSIS":"546.144","EPOCH":"2022-06-06T15:10:06.732768","OBJECT_ID":"2021-017U","LAUNCH_DATE":"2021-03-04","SEMIMAJOR_AXIS":"6925.386","CENTER_NAME":"EARTH","ARG_OF_PERICENTER":"63.1849","DECAY_DATE":null,"ELEMENT_SET_NO":"999","REV_AT_EPOCH":"7097","ECCENTRICITY":"0.00015980","RA_OF_ASC_NODE":"251.0304","OBJECT_TYPE":"PAYLOAD","BSTAR":"0.00002734900000","CLASSIFICATION_TYPE":"U","OBJECT_NAME":"STARLINK-2152","GP_ID":"205526511","EPHEMERIS_TYPE":"0","MEAN_ANOMALY":"296.9303","COUNTRY_CODE":"US","REF_FRAME":"TEME","MEAN_MOTION":"15.06387763","TLE_LINE1":"1 47740U 21017U   22157.63202237  .00000126  00000-0  27349-4 0  9993","INCLINATION":"53.0554","APOAPSIS":"548.358","TIME_SYSTEM":"UTC","FILE":"3484350","RCS_SIZE":"LARGE","MEAN_MOTION_DDOT":"0.0000000000000","PERIOD":"95.593","TLE_LINE2":"2 47740  53.0554 251.0304 0001598  63.1849 296.9303 15.06387763 70976"},{"NORAD_CAT_ID":"47741","MEAN_MOTION_DOT":"-0.00000030","PERIAPSIS":"546.287","EPOCH":"2022-06-06T10:44:42.947520","OBJECT_ID":"2021-017V","LAUNCH_DATE":"2021-03-04","SEMIMAJOR_AXIS":"6925.368","CENTER_NAME":"EARTH","MEAN_ELEMENT_THEORY":"SGP4","SITE":"AFETR","ECCENTRICITY":"0.00013650","RA_OF_ASC_NODE":"251.8584","OBJECT_TYPE":"PAYLOAD","ARG_OF_PERICENTER":"66.6596","DECAY_DATE":null,"ELEMENT_SET_NO":"999","REV_AT_EPOCH":"7090","GP_ID":"205494942","EPHEMERIS_TYPE":"0","MEAN_ANOMALY":"293.4537","COUNTRY_CODE":"US","REF_FRAME":"TEME","BSTAR":"0.00001689400000","CLASSIFICATION_TYPE":"U","OBJECT_NAME":"STARLINK-2154","MEAN_MOTION_DDOT":"0.0000000000000","PERIOD":"95.593","TLE_LINE2":"2 47741  53.0552 251.8584 0001365  66.6596 293.4537 15.06393794 70907","INCLINATION":"53.0552","TLE_LINE1":"1 47741U 21017V   22157.44771930 -.00000030  00000-0  16894-4 0  9992","MEAN_MOTION":"15.06393794","APOAPSIS":"548.178","TIME_SYSTEM":"UTC","FILE":"3484104","RCS_SIZE":"LARGE"},{"INCLINATION":"53.0548","TLE_LINE1":"1 47742U 21017W   22157.52604386  .00000526  00000-0  54224-4 0  9990","MEAN_MOTION":"15.06397739","APOAPSIS":"548.274","TIME_SYSTEM":"UTC","FILE":"3484104","RCS_SIZE":"LARGE","MEAN_MOTION_DDOT":"0.0000000000000","PERIOD":"95.592","TLE_LINE2":"2 47742  53.0548 241.5080 0001521  59.9091 300.2049 15.06397739 71100","BSTAR":"0.00005422400000","CLASSIFICATION_TYPE":"U","OBJECT_NAME":"STARLINK-2156","GP_ID":"205495690","MEAN_ANOMALY":"300.2049","EPHEMERIS_TYPE":"0","COUNTRY_CODE":"US","REF_FRAME":"TEME","ARG_OF_PERICENTER":"59.9091","DECAY_DATE":null,"ELEMENT_SET_NO":"999","REV_AT_EPOCH":"7110","ECCENTRICITY":"0.00015210","RA_OF_ASC_NODE":"241.5080","OBJECT_TYPE":"PAYLOAD","MEAN_ELEMENT_THEORY":"SGP4","SITE":"AFETR","NORAD_CAT_ID":"47742","MEAN_MOTION_DOT":"0.00000526","PERIAPSIS":"546.167","EPOCH":"2022-06-06T12:37:30.189504","OBJECT_ID":"2021-017W","LAUNCH_DATE":"2021-03-04","SEMIMAJOR_AXIS":"6925.355","CENTER_NAME":"EARTH"},{"COUNTRY_CODE":"US","REF_FRAME":"TEME","GP_ID":"205493941","EPHEMERIS_TYPE":"0","MEAN_ANOMALY":"300.2029","OBJECT_NAME":"STARLINK-2157","BSTAR":"0.00002715300000","CLASSIFICATION_TYPE":"U","TLE_LINE2":"2 47743  53.0549 241.6940 0001662  59.9125 300.2029 15.06401066 71075","MEAN_MOTION_DDOT":"0.0000000000000","PERIOD":"95.592","MEAN_MOTION":"15.06401066","TLE_LINE1":"1 47743U 21017X   22157.48550102  .00000123  00000-0  27153-4 0  9996","INCLINATION":"53.0549","APOAPSIS":"548.361","TIME_SYSTEM":"UTC","RCS_SIZE":"LARGE","FILE":"3484104","LAUNCH_DATE":"2021-03-04","CENTER_NAME":"EARTH","SEMIMAJOR_AXIS":"6925.345","NORAD_CAT_ID":"47743","PERIAPSIS":"546.059","MEAN_MOTION_DOT":"0.00000123","EPOCH":"2022-06-06T11:39:07.288128","OBJECT_ID":"2021-017X","SITE":"AFETR","MEAN_ELEMENT_THEORY":"SGP4","OBJECT_TYPE":"PAYLOAD","ECCENTRICITY":"0.00016620","RA_OF_ASC_NODE":"241.6940","ELEMENT_SET_NO":"999","REV_AT_EPOCH":"7107","ARG_OF_PERICENTER":"59.9125","DECAY_DATE":null},{"ELEMENT_SET_NO":"999","REV_AT_EPOCH":"7111","ARG_OF_PERICENTER":"64.8244","DECAY_DATE":null,"OBJECT_TYPE":"PAYLOAD","ECCENTRICITY":"0.00014450","RA_OF_ASC_NODE":"241.1997","SITE":"AFETR","MEAN_ELEMENT_THEORY":"SGP4","LAUNCH_DATE":"2021-03-04","SEMIMAJOR_AXIS":"6925.346","CENTER_NAME":"EARTH","NORAD_CAT_ID":"47744","PERIAPSIS":"546.210","MEAN_MOTION_DOT":"0.00000470","EPOCH":"2022-06-06T14:18:20.698560","OBJECT_ID":"2021-017Y","TLE_LINE1":"1 47744U 21017Y   22157.59607290  .00000470  00000-0  50447-4 0  9997","MEAN_MOTION":"15.06400844","INCLINATION":"53.0539","APOAPSIS":"548.212","TIME_SYSTEM":"UTC","RCS_SIZE":"LARGE","FILE":"3484350","TLE_LINE2":"2 47744  53.0539 241.1997 0001445  64.8244 295.2894 15.06400844 71119","MEAN_MOTION_DDOT":"0.0000000000000","PERIOD":"95.592","OBJECT_NAME":"STARLINK-2158","BSTAR":"0.00005044700000","CLASSIFICATION_TYPE":"U","COUNTRY_CODE":"US","REF_FRAME":"TEME","GP_ID":"205526011","EPHEMERIS_TYPE":"0","MEAN_ANOMALY":"295.2894"},{"OBJECT_TYPE":"PAYLOAD","ECCENTRICITY":"0.00013810","RA_OF_ASC_NODE":"250.4594","ELEMENT_SET_NO":"999","REV_AT_EPOCH":"7094","DECAY_DATE":null,"ARG_OF_PERICENTER":"74.4781","CENTER_NAME":"EARTH","SEMIMAJOR_AXIS":"6925.355","LAUNCH_DATE":"2021-03-04","EPOCH":"2022-06-06T18:10:33.756096","OBJECT_ID":"2021-017Z","NORAD_CAT_ID":"47745","MEAN_MOTION_DOT":"0.00000518","PERIAPSIS":"546.264","SITE":"AFETR","MEAN_ELEMENT_THEORY":"SGP4","TLE_LINE2":"2 47745  53.0538 250.4594 0001381  74.4781 285.6360 15.06397759 70948","PERIOD":"95.592","MEAN_MOTION_DDOT":"0.0000000000000","TIME_SYSTEM":"UTC","RCS_SIZE":"LARGE","FILE":"3484350","INCLINATION":"53.0538","TLE_LINE1":"1 47745U 21017Z   22157.75733514  .00000518  00000-0  53651-4 0  9998","MEAN_MOTION":"15.06397759","APOAPSIS":"548.177","REF_FRAME":"TEME","COUNTRY_CODE":"US","MEAN_ANOMALY":"285.6360","EPHEMERIS_TYPE":"0","GP_ID":"205526235","OBJECT_NAME":"STARLINK-2159","CLASSIFICATION_TYPE":"U","BSTAR":"0.00005365100000"},{"COUNTRY_CODE":"US","REF_FRAME":"TEME","GP_ID":"205495191","MEAN_ANOMALY":"300.6209","EPHEMERIS_TYPE":"0","OBJECT_NAME":"STARLINK-2160","BSTAR":"0.00010322000000","CLASSIFICATION_TYPE":"U","TLE_LINE2":"2 47746  53.0564 251.3931 0001397  59.4917 300.6209 15.06399306 70900","MEAN_MOTION_DDOT":"0.0000000000000","PERIOD":"95.592","APOAPSIS":"548.183","INCLINATION":"53.0564","TLE_LINE1":"1 47746U 21017AA  22157.55091852  .00001256  00000-0  10322-3 0  9996","MEAN_MOTION":"15.06399306","FILE":"3484104","RCS_SIZE":"LARGE","TIME_SYSTEM":"UTC","LAUNCH_DATE":"2021-03-04","CENTER_NAME":"EARTH","SEMIMAJOR_AXIS":"6925.351","PERIAPSIS":"546.248","MEAN_MOTION_DOT":"0.00001256","NORAD_CAT_ID":"47746","OBJECT_ID":"2021-017AA","EPOCH":"2022-06-06T13:13:19.360128","SITE":"AFETR","MEAN_ELEMENT_THEORY":"SGP4","OBJECT_TYPE":"PAYLOAD","RA_OF_ASC_NODE":"251.3931","ECCENTRICITY":"0.00013970","REV_AT_EPOCH":"7090","ELEMENT_SET_NO":"999","ARG_OF_PERICENTER":"59.4917","DECAY_DATE":null}];
